{
  "norad_id": 66513,
  "name": "STARLINK-35692",
  "history": [
    {
      "epoch": "2026-03-28T19:48:35.188992",
      "apogee_km": 484.163784118894,
      "perigee_km": 481.78133243587854,
      "latitude_deg": -22.12744590741121,
      "longitude_deg": -169.4609011199791,
      "semi_major_axis_km": 6861.109558277386,
      "eccentricity": 0.00017362,
      "inclination_deg": 43.0,
      "raan_deg": 242.777,
      "arg_perigee_deg": 281.5493,
      "mean_anomaly_deg": 78.5163,
      "mean_motion_rev_day": 15.27605561
    }
  ]
}